[{"OBJECT_NAME":"GONETS-M 16","OBJECT_ID":"2019-096C","EPOCH":"2026-02-01T22:47:15.919584","MEAN_MOTION":12.42886812,"ECCENTRICITY":0.0011902,"INCLINATION":82.5219,"RA_OF_ASC_NODE":167.9242,"ARG_OF_PERICENTER":150.8846,"MEAN_ANOMALY":209.2899,"EPHEMERIS_TYPE":0,"CLASSIFICATION_TYPE":"U","NORAD_CAT_ID":44907,"ELEMENT_SET_NO":999,"REV_AT_EPOCH":27683,"BSTAR":-0.00038326026,"MEAN_MOTION_DOT":-4.3e-7,"MEAN_MOTION_DDOT":0},{"OBJECT_NAME":"RS-44 & BREEZE-KM R/B","OBJECT_ID":"2019-096E","EPOCH":"2026-02-01T19:58:10.057440","MEAN_MOTION":12.79746829,"ECCENTRICITY":0.0218631,"INCLINATION":82.5177,"RA_OF_ASC_NODE":69.6541,"ARG_OF_PERICENTER":100.8232,"MEAN_ANOMALY":261.7558,"EPHEMERIS_TYPE":0,"CLASSIFICATION_TYPE":"U","NORAD_CAT_ID":44909,"ELEMENT_SET_NO":999,"REV_AT_EPOCH":28503,"BSTAR":8.2910434e-5,"MEAN_MOTION_DOT":3.4e-7,"MEAN_MOTION_DDOT":0},{"OBJECT_NAME":"JILIN-1 KUANFU 01","OBJECT_ID":"2020-003A","EPOCH":"2026-02-01T22:20:44.727072","MEAN_MOTION":15.10303764,"ECCENTRICITY":0.00093631,"INCLINATION":97.5175,"RA_OF_ASC_NODE":109.5303,"ARG_OF_PERICENTER":62.0552,"MEAN_ANOMALY":298.1625,"EPHEMERIS_TYPE":0,"CLASSIFICATION_TYPE":"U","NORAD_CAT_ID":45016,"ELEMENT_SET_NO":999,"REV_AT_EPOCH":33491,"BSTAR":0.00019921042,"MEAN_MOTION_DOT":3.203e-5,"MEAN_MOTION_DDOT":0},{"OBJECT_NAME":"XINGYUN-2 01","OBJECT_ID":"2020-028A","EPOCH":"2026-02-01T22:58:08.439168","MEAN_MOTION":15.11076017,"ECCENTRICITY":0.00079559,"INCLINATION":97.4799,"RA_OF_ASC_NODE":28.1558,"ARG_OF_PERICENTER":319.2259,"MEAN_ANOMALY":40.8375,"EPHEMERIS_TYPE":0,"CLASSIFICATION_TYPE":"U","NORAD_CAT_ID":45602,"ELEMENT_SET_NO":999,"REV_AT_EPOCH":31441,"BSTAR":8.0894344e-5,"MEAN_MOTION_DOT":1.291e-5,"MEAN_MOTION_DDOT":0},{"OBJECT_NAME":"XINGYUN-2 02","OBJECT_ID":"2020-028B","EPOCH":"2026-02-01T23:30:45.419904","MEAN_MOTION":15.10853254,"ECCENTRICITY":0.00117473,"INCLINATION":97.5086,"RA_OF_ASC_NODE":41.3937,"ARG_OF_PERICENTER":24.6666,"MEAN_ANOMALY":335.5124,"EPHEMERIS_TYPE":0,"CLASSIFICATION_TYPE":"U","NORAD_CAT_ID":45603,"ELEMENT_SET_NO":999,"REV_AT_EPOCH":31441,"BSTAR":8.625299e-5,"MEAN_MOTION_DOT":1.373e-5,"MEAN_MOTION_DDOT":0},{"OBJECT_NAME":"HAIYANG-1D","OBJECT_ID":"2020-036A","EPOCH":"2026-02-01T21:45:49.154688","MEAN_MOTION":14.34183463,"ECCENTRICITY":0.00022946,"INCLINATION":98.4425,"RA_OF_ASC_NODE":337.6236,"ARG_OF_PERICENTER":166.4635,"MEAN_ANOMALY":193.6612,"EPHEMERIS_TYPE":0,"CLASSIFICATION_TYPE":"U","NORAD_CAT_ID":45721,"ELEMENT_SET_NO":999,"REV_AT_EPOCH":29558,"BSTAR":5.972292e-5,"MEAN_MOTION_DOT":1.24e-6,"MEAN_MOTION_DDOT":0},{"OBJECT_NAME":"M2 PATHFINDER","OBJECT_ID":"2020-037E","EPOCH":"2026-02-01T22:52:44.659488","MEAN_MOTION":15.03902233,"ECCENTRICITY":0.00108098,"INCLINATION":97.8122,"RA_OF_ASC_NODE":222.6933,"ARG_OF_PERICENTER":248.78,"MEAN_ANOMALY":111.2271,"EPHEMERIS_TYPE":0,"CLASSIFICATION_TYPE":"U","NORAD_CAT_ID":45727,"ELEMENT_SET_NO":999,"REV_AT_EPOCH":30516,"BSTAR":0.00021718126,"MEAN_MOTION_DOT":2.932e-5,"MEAN_MOTION_DDOT":0},{"OBJECT_NAME":"GAOFEN DUOMO (GFDM)","OBJECT_ID":"2020-042A","EPOCH":"2026-02-01T23:19:10.190208","MEAN_MOTION":14.76825165,"ECCENTRICITY":0.00120018,"INCLINATION":97.7953,"RA_OF_ASC_NODE":97.661,"ARG_OF_PERICENTER":141.6087,"MEAN_ANOMALY":218.598,"EPHEMERIS_TYPE":0,"CLASSIFICATION_TYPE":"U","NORAD_CAT_ID":45856,"ELEMENT_SET_NO":999,"REV_AT_EPOCH":30105,"BSTAR":8.7019675e-5,"MEAN_MOTION_DOT":5.62e-6,"MEAN_MOTION_DDOT":0},{"OBJECT_NAME":"ZIYUAN 3-03 (ZY 3-03)","OBJECT_ID":"2020-051A","EPOCH":"2026-02-01T22:59:50.874144","MEAN_MOTION":15.21300221,"ECCENTRICITY":0.00065824,"INCLINATION":97.3008,"RA_OF_ASC_NODE":104.9464,"ARG_OF_PERICENTER":82.9941,"MEAN_ANOMALY":277.2043,"EPHEMERIS_TYPE":0,"CLASSIFICATION_TYPE":"U","NORAD_CAT_ID":45939,"ELEMENT_SET_NO":999,"REV_AT_EPOCH":30678,"BSTAR":0.00016728259,"MEAN_MOTION_DOT":3.676e-5,"MEAN_MOTION_DDOT":0},{"OBJECT_NAME":"TYVAK-0172","OBJECT_ID":"2020-059C","EPOCH":"2026-02-01T15:27:49.684320","MEAN_MOTION":15.57228345,"ECCENTRICITY":0.00044547,"INCLINATION":97.7272,"RA_OF_ASC_NODE":271.7531,"ARG_OF_PERICENTER":76.3222,"MEAN_ANOMALY":283.8528,"EPHEMERIS_TYPE":0,"CLASSIFICATION_TYPE":"U","NORAD_CAT_ID":46267,"ELEMENT_SET_NO":999,"REV_AT_EPOCH":29749,"BSTAR":0.0013548971,"MEAN_MOTION_DOT":0.0009961,"MEAN_MOTION_DDOT":0},{"OBJECT_NAME":"ION-MK01","OBJECT_ID":"2020-061C","EPOCH":"2026-02-01T17:42:07.580736","MEAN_MOTION":15.77029237,"ECCENTRICITY":0.00010455,"INCLINATION":97.2074,"RA_OF_ASC_NODE":109.9199,"ARG_OF_PERICENTER":83.1053,"MEAN_ANOMALY":277.0332,"EPHEMERIS_TYPE":0,"CLASSIFICATION_TYPE":"U","NORAD_CAT_ID":46274,"ELEMENT_SET_NO":999,"REV_AT_EPOCH":30196,"BSTAR":0.00061412787,"MEAN_MOTION_DOT":0.00100289,"MEAN_MOTION_DDOT":0},{"OBJECT_NAME":"NEMO-HD","OBJECT_ID":"2020-061F","EPOCH":"2026-02-01T23:52:44.239872","MEAN_MOTION":15.41637273,"ECCENTRICITY":0.00020637,"INCLINATION":97.2126,"RA_OF_ASC_NODE":96.4612,"ARG_OF_PERICENTER":121.3821,"MEAN_ANOMALY":238.7628,"EPHEMERIS_TYPE":0,"CLASSIFICATION_TYPE":"U","NORAD_CAT_ID":46277,"ELEMENT_SET_NO":999,"REV_AT_EPOCH":30113,"BSTAR":0.00024775661,"MEAN_MOTION_DOT":0.00010353,"MEAN_MOTION_DDOT":0},{"OBJECT_NAME":"3CAT-5A","OBJECT_ID":"2020-061W","EPOCH":"2026-02-01T17:12:40.867488","MEAN_MOTION":15.41528139,"ECCENTRICITY":7.312e-5,"INCLINATION":97.2616,"RA_OF_ASC_NODE":96.0728,"ARG_OF_PERICENTER":212.6251,"MEAN_ANOMALY":147.4951,"EPHEMERIS_TYPE":0,"CLASSIFICATION_TYPE":"U","NORAD_CAT_ID":46292,"ELEMENT_SET_NO":999,"REV_AT_EPOCH":30012,"BSTAR":0.00036921991,"MEAN_MOTION_DOT":0.00015421,"MEAN_MOTION_DDOT":0},{"OBJECT_NAME":"3CAT-5B","OBJECT_ID":"2020-061X","EPOCH":"2026-02-01T16:13:51.985632","MEAN_MOTION":15.42562399,"ECCENTRICITY":8.34e-5,"INCLINATION":97.262,"RA_OF_ASC_NODE":96.7727,"ARG_OF_PERICENTER":226.6862,"MEAN_ANOMALY":133.4317,"EPHEMERIS_TYPE":0,"CLASSIFICATION_TYPE":"U","NORAD_CAT_ID":46293,"ELEMENT_SET_NO":999,"REV_AT_EPOCH":30013,"BSTAR":0.00038662742,"MEAN_MOTION_DOT":0.00016721,"MEAN_MOTION_DDOT":0},{"OBJECT_NAME":"NAPA-1","OBJECT_ID":"2020-061BA","EPOCH":"2026-02-01T23:29:02.505408","MEAN_MOTION":15.53554676,"ECCENTRICITY":0.00010501,"INCLINATION":97.2674,"RA_OF_ASC_NODE":104.1431,"ARG_OF_PERICENTER":108.3111,"MEAN_ANOMALY":251.8257,"EPHEMERIS_TYPE":0,"CLASSIFICATION_TYPE":"U","NORAD_CAT_ID":46320,"ELEMENT_SET_NO":999,"REV_AT_EPOCH":30065,"BSTAR":0.00063608614,"MEAN_MOTION_DOT":0.0004051,"MEAN_MOTION_DDOT":0},{"OBJECT_NAME":"JILIN-1 GAOFEN 3B","OBJECT_ID":"2020-065A","EPOCH":"2026-02-01T22:10:42.390336","MEAN_MOTION":15.69955438,"ECCENTRICITY":0.00020949,"INCLINATION":97.2456,"RA_OF_ASC_NODE":88.981,"ARG_OF_PERICENTER":231.2534,"MEAN_ANOMALY":128.8542,"EPHEMERIS_TYPE":0,"CLASSIFICATION_TYPE":"U","NORAD_CAT_ID":46454,"ELEMENT_SET_NO":999,"REV_AT_EPOCH":29909,"BSTAR":0.00075325517,"MEAN_MOTION_DOT":0.00090922,"MEAN_MOTION_DDOT":0}]
