GONETS-M 16             
1 44907U 19096C   26032.94948981 -.00000043  00000+0 -38326-3 0  9997
2 44907  82.5219 167.9242 0011902 150.8846 209.2899 12.42886812276836
RS-44 & BREEZE-KM R/B   
1 44909U 19096E   26032.83206085  .00000034  00000+0  82910-4 0  9996
2 44909  82.5177  69.6541 0218631 100.8232 261.7558 12.79746829285033
JILIN-1 KUANFU 01       
1 45016U 20003A   26032.93107323  .00003203  00000+0  19921-3 0  9994
2 45016  97.5175 109.5303 0009363  62.0552 298.1625 15.10303764334917
XINGYUN-2 01            
1 45602U 20028A   26032.95704212  .00001291  00000+0  80894-4 0  9997
2 45602  97.4799  28.1558 0007955 319.2259  40.8375 15.11076017314419
XINGYUN-2 02            
1 45603U 20028B   26032.97969236  .00001373  00000+0  86253-4 0  9995
2 45603  97.5086  41.3937 0011747  24.6666 335.5124 15.10853254314412
HAIYANG-1D              
1 45721U 20036A   26032.90681892  .00000124  00000+0  59723-4 0  9992
2 45721  98.4425 337.6236 0002294 166.4635 193.6612 14.34183463295585
M2 PATHFINDER           
1 45727U 20037E   26032.95329467  .00002932  00000+0  21718-3 0  9992
2 45727  97.8122 222.6933 0010809 248.7800 111.2271 15.03902233305168
GAOFEN DUOMO (GFDM)     
1 45856U 20042A   26032.97164572  .00000562  00000+0  87020-4 0  9993
2 45856  97.7953  97.6610 0012001 141.6087 218.5980 14.76825165301057
ZIYUAN 3-03 (ZY 3-03)   
1 45939U 20051A   26032.95822771  .00003676  00000+0  16728-3 0  9990
2 45939  97.3008 104.9464 0006582  82.9941 277.2043 15.21300221306787
TYVAK-0172              
1 46267U 20059C   26032.64432505  .00099610  00000+0  13549-2 0  9991
2 46267  97.7272 271.7531 0004454  76.3222 283.8528 15.57228345297495
ION-MK01                
1 46274U 20061C   26032.73758774  .00100289  00000+0  61413-3 0  9990
2 46274  97.2074 109.9199 0001045  83.1053 277.0332 15.77029237301968
NEMO-HD                 
1 46277U 20061F   26032.99495648  .00010353  00000+0  24776-3 0  9992
2 46277  97.2126  96.4612 0002063 121.3821 238.7628 15.41637273301135
3CAT-5A                 
1 46292U 20061W   26032.71713967  .00015421  00000+0  36922-3 0  9993
2 46292  97.2616  96.0728 0000731 212.6251 147.4951 15.41528139300124
3CAT-5B                 
1 46293U 20061X   26032.67629613  .00016721  00000+0  38663-3 0  9991
2 46293  97.2620  96.7727 0000834 226.6862 133.4317 15.42562399300132
NAPA-1                  
1 46320U 20061BA  26032.97850122  .00040510  00000+0  63609-3 0  9997
2 46320  97.2674 104.1431 0001050 108.3111 251.8257 15.53554676300658
JILIN-1 GAOFEN 3B       
1 46454U 20065A   26032.92410174  .00090922  00000+0  75326-3 0  9994
2 46454  97.2456  88.9810 0002094 231.2534 128.8542 15.69955438299091
